[Satellite]
VERSION=1.1
NAME=FENGYUN 3C
NICKNAME=FENGYUN 3C
TLE1=1 39260U 13052A   15055.45322859  .00000106  00000-0  71280-4 0  9994
TLE2=2 39260  98.7421 129.1256 0000461 120.8521 239.2708 14.19534738 73678
